{
  "last_updated": "2025-12-14T06:00:02.865599",
  "satellites": {
    "98592": {
      "name": "DUTHSat-2",
      "norad_id": "98592",
      "tle": "1 64530U 25135C   25347.55719768  .00011218  00000-0  50001-3 0  9995\n2 64530  97.4495  99.4787 0006047 115.0169 245.1695 15.21573570 26659",
      "epoch": "2025-12-13T13:22:21.879552",
      "fetched_at": "2025-12-14T06:00:03.009025",
      "source": "satnogs"
    },
    "98530": {
      "name": "LAMARR",
      "norad_id": "98530",
      "tle": "1 98530U          25347.14018883 +.00016018 +00000+0 +81549-3 0 00254\n2 98530  97.4379  58.8765 0006048 310.1673  49.9030 15.16871742002182",
      "epoch": "2025-12-13T03:21:52.314912",
      "fetched_at": "2025-12-14T06:00:03.064145",
      "source": "satnogs"
    },
    "98529": {
      "name": "DIRAC",
      "norad_id": "98529",
      "tle": "1 98529U          25347.13789021 +.00025845 +00000+0 +13016-2 0 00217\n2 98529  97.4352  58.8751 0005250 317.0903  42.9920 15.17155167002180",
      "epoch": "2025-12-13T03:18:33.714144",
      "fetched_at": "2025-12-14T06:00:03.117315",
      "source": "satnogs"
    },
    "98518": {
      "name": "MICE-1",
      "norad_id": "98518",
      "tle": "1 98518U 25276Z   25345.50761227  .00000000  00000-0  85911-3 0 00002\n2 98518  97.4491  57.2978 0004401 288.2412 177.0173 15.17054724 01824",
      "epoch": "2025-12-11T12:10:57.700128",
      "fetched_at": "2025-12-14T06:00:03.175790",
      "source": "satnogs"
    }
  },
  "fetch_log": [
    {
      "norad_id": "98592",
      "name": "DUTHSat-2",
      "status": "success",
      "source": "satnogs",
      "timestamp": "2025-12-14T06:00:03.009039"
    },
    {
      "norad_id": "98530",
      "name": "LAMARR",
      "status": "success",
      "source": "satnogs",
      "timestamp": "2025-12-14T06:00:03.064170"
    },
    {
      "norad_id": "98529",
      "name": "DIRAC",
      "status": "success",
      "source": "satnogs",
      "timestamp": "2025-12-14T06:00:03.117326"
    },
    {
      "norad_id": "98518",
      "name": "MICE-1",
      "status": "success",
      "source": "satnogs",
      "timestamp": "2025-12-14T06:00:03.175794"
    }
  ]
}